KUIPER-00008            
1 63724U 25088A   25196.91668981 -.00021404  00000+0 -12229-2 0  9996
2 63724  51.8828  87.0643 0012034  33.3926 224.3096 15.11782874 12520
KUIPER-00009            
1 63725U 25088B   25196.91668981 -.01325544  00000+0 -52498-1 0  9991
2 63725  51.8668  82.3481 0010621  49.7241  32.0042 15.27869754 12594
KUIPER-00010            
1 63726U 25088C   25196.10304193  .00009372  00000+0  27601-3 0  9990
2 63726  51.8637  86.0934 0009914  36.5649 323.6012 15.35713259 12092
KUIPER-00011            
1 63727U 25088D   25196.84255503  .00008861  00000+0  26468-3 0  9994
2 63727  51.8572  82.7434 0011774  46.4713 313.7249 15.35322867 12349
KUIPER-00012            
1 63728U 25088E   25196.84129397  .00009122  00000+0  27182-3 0  9991
2 63728  51.8561  82.7253 0011720  47.6383 312.5593 15.35362401 12295
KUIPER-00013            
1 63729U 25088F   25196.91668981 -.00571952  00000+0 -22982-1 0  9995
2 63729  51.8681  82.8227 0008828  32.3812 171.5698 15.26524257 12393
KUIPER-00014            
1 63730U 25088G   25196.58334491  .00052788  00000+0  20702-2 0  9994
2 63730  51.8665  85.2307 0010822  35.0773 107.9930 15.25187356  4472
KUIPER-00015            
1 63731U 25088H   25196.83335648 -.00067551  00000+0 -48523-2 0  9995
2 63731  51.8794  90.5906 0009792  34.9328  35.3797 15.04014612 12552
