<?xml version="1.0" encoding="UTF-8"?>
<ndm xmlns:xsi="http://www.w3.org/2001/XMLSchema-instance" xsi:noNamespaceSchemaLocation="https://sanaregistry.org/r/ndmxml_unqualified/ndmxml-2.0.0-master-2.0.xsd">
<omm id="CCSDS_OMM_VERS" version="2.0">
<header><CREATION_DATE/><ORIGINATOR/></header><body><segment><metadata><OBJECT_NAME>KUIPER-00008</OBJECT_NAME><OBJECT_ID>2025-088A</OBJECT_ID><CENTER_NAME>EARTH</CENTER_NAME><REF_FRAME>TEME</REF_FRAME><TIME_SYSTEM>UTC</TIME_SYSTEM><MEAN_ELEMENT_THEORY>SGP4</MEAN_ELEMENT_THEORY></metadata><data><meanElements><EPOCH>2025-07-15T22:00:01.999584</EPOCH><MEAN_MOTION>15.11782874</MEAN_MOTION><ECCENTRICITY>.0012034</ECCENTRICITY><INCLINATION>51.8828</INCLINATION><RA_OF_ASC_NODE>87.0643</RA_OF_ASC_NODE><ARG_OF_PERICENTER>33.3926</ARG_OF_PERICENTER><MEAN_ANOMALY>224.3096</MEAN_ANOMALY></meanElements><tleParameters><EPHEMERIS_TYPE>0</EPHEMERIS_TYPE><CLASSIFICATION_TYPE>U</CLASSIFICATION_TYPE><NORAD_CAT_ID>63724</NORAD_CAT_ID><ELEMENT_SET_NO>999</ELEMENT_SET_NO><REV_AT_EPOCH>1252</REV_AT_EPOCH><BSTAR>-.12229E-2</BSTAR><MEAN_MOTION_DOT>-.21404E-3</MEAN_MOTION_DOT><MEAN_MOTION_DDOT>0</MEAN_MOTION_DDOT></tleParameters></data></segment></body></omm>
<omm id="CCSDS_OMM_VERS" version="2.0">
<header><CREATION_DATE/><ORIGINATOR/></header><body><segment><metadata><OBJECT_NAME>KUIPER-00009</OBJECT_NAME><OBJECT_ID>2025-088B</OBJECT_ID><CENTER_NAME>EARTH</CENTER_NAME><REF_FRAME>TEME</REF_FRAME><TIME_SYSTEM>UTC</TIME_SYSTEM><MEAN_ELEMENT_THEORY>SGP4</MEAN_ELEMENT_THEORY></metadata><data><meanElements><EPOCH>2025-07-15T22:00:01.999584</EPOCH><MEAN_MOTION>15.27869754</MEAN_MOTION><ECCENTRICITY>.0010621</ECCENTRICITY><INCLINATION>51.8668</INCLINATION><RA_OF_ASC_NODE>82.3481</RA_OF_ASC_NODE><ARG_OF_PERICENTER>49.7241</ARG_OF_PERICENTER><MEAN_ANOMALY>32.0042</MEAN_ANOMALY></meanElements><tleParameters><EPHEMERIS_TYPE>0</EPHEMERIS_TYPE><CLASSIFICATION_TYPE>U</CLASSIFICATION_TYPE><NORAD_CAT_ID>63725</NORAD_CAT_ID><ELEMENT_SET_NO>999</ELEMENT_SET_NO><REV_AT_EPOCH>1259</REV_AT_EPOCH><BSTAR>-.52498E-1</BSTAR><MEAN_MOTION_DOT>-.1325544E-1</MEAN_MOTION_DOT><MEAN_MOTION_DDOT>0</MEAN_MOTION_DDOT></tleParameters></data></segment></body></omm>
<omm id="CCSDS_OMM_VERS" version="2.0">
<header><CREATION_DATE/><ORIGINATOR/></header><body><segment><metadata><OBJECT_NAME>KUIPER-00010</OBJECT_NAME><OBJECT_ID>2025-088C</OBJECT_ID><CENTER_NAME>EARTH</CENTER_NAME><REF_FRAME>TEME</REF_FRAME><TIME_SYSTEM>UTC</TIME_SYSTEM><MEAN_ELEMENT_THEORY>SGP4</MEAN_ELEMENT_THEORY></metadata><data><meanElements><EPOCH>2025-07-15T02:28:22.822752</EPOCH><MEAN_MOTION>15.35713259</MEAN_MOTION><ECCENTRICITY>.0009914</ECCENTRICITY><INCLINATION>51.8637</INCLINATION><RA_OF_ASC_NODE>86.0934</RA_OF_ASC_NODE><ARG_OF_PERICENTER>36.5649</ARG_OF_PERICENTER><MEAN_ANOMALY>323.6012</MEAN_ANOMALY></meanElements><tleParameters><EPHEMERIS_TYPE>0</EPHEMERIS_TYPE><CLASSIFICATION_TYPE>U</CLASSIFICATION_TYPE><NORAD_CAT_ID>63726</NORAD_CAT_ID><ELEMENT_SET_NO>999</ELEMENT_SET_NO><REV_AT_EPOCH>1209</REV_AT_EPOCH><BSTAR>.27601E-3</BSTAR><MEAN_MOTION_DOT>.9372E-4</MEAN_MOTION_DOT><MEAN_MOTION_DDOT>0</MEAN_MOTION_DDOT></tleParameters></data></segment></body></omm>
<omm id="CCSDS_OMM_VERS" version="2.0">
<header><CREATION_DATE/><ORIGINATOR/></header><body><segment><metadata><OBJECT_NAME>KUIPER-00011</OBJECT_NAME><OBJECT_ID>2025-088D</OBJECT_ID><CENTER_NAME>EARTH</CENTER_NAME><REF_FRAME>TEME</REF_FRAME><TIME_SYSTEM>UTC</TIME_SYSTEM><MEAN_ELEMENT_THEORY>SGP4</MEAN_ELEMENT_THEORY></metadata><data><meanElements><EPOCH>2025-07-15T20:13:16.754592</EPOCH><MEAN_MOTION>15.35322867</MEAN_MOTION><ECCENTRICITY>.0011774</ECCENTRICITY><INCLINATION>51.8572</INCLINATION><RA_OF_ASC_NODE>82.7434</RA_OF_ASC_NODE><ARG_OF_PERICENTER>46.4713</ARG_OF_PERICENTER><MEAN_ANOMALY>313.7249</MEAN_ANOMALY></meanElements><tleParameters><EPHEMERIS_TYPE>0</EPHEMERIS_TYPE><CLASSIFICATION_TYPE>U</CLASSIFICATION_TYPE><NORAD_CAT_ID>63727</NORAD_CAT_ID><ELEMENT_SET_NO>999</ELEMENT_SET_NO><REV_AT_EPOCH>1234</REV_AT_EPOCH><BSTAR>.26468E-3</BSTAR><MEAN_MOTION_DOT>.8861E-4</MEAN_MOTION_DOT><MEAN_MOTION_DDOT>0</MEAN_MOTION_DDOT></tleParameters></data></segment></body></omm>
<omm id="CCSDS_OMM_VERS" version="2.0">
<header><CREATION_DATE/><ORIGINATOR/></header><body><segment><metadata><OBJECT_NAME>KUIPER-00012</OBJECT_NAME><OBJECT_ID>2025-088E</OBJECT_ID><CENTER_NAME>EARTH</CENTER_NAME><REF_FRAME>TEME</REF_FRAME><TIME_SYSTEM>UTC</TIME_SYSTEM><MEAN_ELEMENT_THEORY>SGP4</MEAN_ELEMENT_THEORY></metadata><data><meanElements><EPOCH>2025-07-15T20:11:27.799008</EPOCH><MEAN_MOTION>15.35362401</MEAN_MOTION><ECCENTRICITY>.001172</ECCENTRICITY><INCLINATION>51.8561</INCLINATION><RA_OF_ASC_NODE>82.7253</RA_OF_ASC_NODE><ARG_OF_PERICENTER>47.6383</ARG_OF_PERICENTER><MEAN_ANOMALY>312.5593</MEAN_ANOMALY></meanElements><tleParameters><EPHEMERIS_TYPE>0</EPHEMERIS_TYPE><CLASSIFICATION_TYPE>U</CLASSIFICATION_TYPE><NORAD_CAT_ID>63728</NORAD_CAT_ID><ELEMENT_SET_NO>999</ELEMENT_SET_NO><REV_AT_EPOCH>1229</REV_AT_EPOCH><BSTAR>.27182E-3</BSTAR><MEAN_MOTION_DOT>.9122E-4</MEAN_MOTION_DOT><MEAN_MOTION_DDOT>0</MEAN_MOTION_DDOT></tleParameters></data></segment></body></omm>
<omm id="CCSDS_OMM_VERS" version="2.0">
<header><CREATION_DATE/><ORIGINATOR/></header><body><segment><metadata><OBJECT_NAME>KUIPER-00013</OBJECT_NAME><OBJECT_ID>2025-088F</OBJECT_ID><CENTER_NAME>EARTH</CENTER_NAME><REF_FRAME>TEME</REF_FRAME><TIME_SYSTEM>UTC</TIME_SYSTEM><MEAN_ELEMENT_THEORY>SGP4</MEAN_ELEMENT_THEORY></metadata><data><meanElements><EPOCH>2025-07-15T22:00:01.999584</EPOCH><MEAN_MOTION>15.26524257</MEAN_MOTION><ECCENTRICITY>.0008828</ECCENTRICITY><INCLINATION>51.8681</INCLINATION><RA_OF_ASC_NODE>82.8227</RA_OF_ASC_NODE><ARG_OF_PERICENTER>32.3812</ARG_OF_PERICENTER><MEAN_ANOMALY>171.5698</MEAN_ANOMALY></meanElements><tleParameters><EPHEMERIS_TYPE>0</EPHEMERIS_TYPE><CLASSIFICATION_TYPE>U</CLASSIFICATION_TYPE><NORAD_CAT_ID>63729</NORAD_CAT_ID><ELEMENT_SET_NO>999</ELEMENT_SET_NO><REV_AT_EPOCH>1239</REV_AT_EPOCH><BSTAR>-.22982E-1</BSTAR><MEAN_MOTION_DOT>-.571952E-2</MEAN_MOTION_DOT><MEAN_MOTION_DDOT>0</MEAN_MOTION_DDOT></tleParameters></data></segment></body></omm>
<omm id="CCSDS_OMM_VERS" version="2.0">
<header><CREATION_DATE/><ORIGINATOR/></header><body><segment><metadata><OBJECT_NAME>KUIPER-00014</OBJECT_NAME><OBJECT_ID>2025-088G</OBJECT_ID><CENTER_NAME>EARTH</CENTER_NAME><REF_FRAME>TEME</REF_FRAME><TIME_SYSTEM>UTC</TIME_SYSTEM><MEAN_ELEMENT_THEORY>SGP4</MEAN_ELEMENT_THEORY></metadata><data><meanElements><EPOCH>2025-07-15T14:00:01.000224</EPOCH><MEAN_MOTION>15.25187356</MEAN_MOTION><ECCENTRICITY>.0010822</ECCENTRICITY><INCLINATION>51.8665</INCLINATION><RA_OF_ASC_NODE>85.2307</RA_OF_ASC_NODE><ARG_OF_PERICENTER>35.0773</ARG_OF_PERICENTER><MEAN_ANOMALY>107.9930</MEAN_ANOMALY></meanElements><tleParameters><EPHEMERIS_TYPE>0</EPHEMERIS_TYPE><CLASSIFICATION_TYPE>U</CLASSIFICATION_TYPE><NORAD_CAT_ID>63730</NORAD_CAT_ID><ELEMENT_SET_NO>999</ELEMENT_SET_NO><REV_AT_EPOCH>447</REV_AT_EPOCH><BSTAR>.20702E-2</BSTAR><MEAN_MOTION_DOT>.52788E-3</MEAN_MOTION_DOT><MEAN_MOTION_DDOT>0</MEAN_MOTION_DDOT></tleParameters></data></segment></body></omm>
<omm id="CCSDS_OMM_VERS" version="2.0">
<header><CREATION_DATE/><ORIGINATOR/></header><body><segment><metadata><OBJECT_NAME>KUIPER-00015</OBJECT_NAME><OBJECT_ID>2025-088H</OBJECT_ID><CENTER_NAME>EARTH</CENTER_NAME><REF_FRAME>TEME</REF_FRAME><TIME_SYSTEM>UTC</TIME_SYSTEM><MEAN_ELEMENT_THEORY>SGP4</MEAN_ELEMENT_THEORY></metadata><data><meanElements><EPOCH>2025-07-15T20:00:01.999872</EPOCH><MEAN_MOTION>15.04014612</MEAN_MOTION><ECCENTRICITY>.0009792</ECCENTRICITY><INCLINATION>51.8794</INCLINATION><RA_OF_ASC_NODE>90.5906</RA_OF_ASC_NODE><ARG_OF_PERICENTER>34.9328</ARG_OF_PERICENTER><MEAN_ANOMALY>35.3797</MEAN_ANOMALY></meanElements><tleParameters><EPHEMERIS_TYPE>0</EPHEMERIS_TYPE><CLASSIFICATION_TYPE>U</CLASSIFICATION_TYPE><NORAD_CAT_ID>63731</NORAD_CAT_ID><ELEMENT_SET_NO>999</ELEMENT_SET_NO><REV_AT_EPOCH>1255</REV_AT_EPOCH><BSTAR>-.48523E-2</BSTAR><MEAN_MOTION_DOT>-.67551E-3</MEAN_MOTION_DOT><MEAN_MOTION_DDOT>0</MEAN_MOTION_DDOT></tleParameters></data></segment></body></omm>

</ndm>
